[{"OBJECT_NAME":"SSOT","OBJECT_ID":"2011-076E","EPOCH":"2026-03-09T22:23:33.856800","MEAN_MOTION":14.82272424,"ECCENTRICITY":0.00016181,"INCLINATION":97.8182,"RA_OF_ASC_NODE":131.6593,"ARG_OF_PERICENTER":92.448,"MEAN_ANOMALY":13.5994,"EPHEMERIS_TYPE":0,"CLASSIFICATION_TYPE":"U","NORAD_CAT_ID":38011,"ELEMENT_SET_NO":999,"REV_AT_EPOCH":76967,"BSTAR":0.00020589736,"MEAN_MOTION_DOT":1.593e-5,"MEAN_MOTION_DDOT":0},{"OBJECT_NAME":"CZ-6A DEB","OBJECT_ID":"2024-140ABA","EPOCH":"2026-03-09T14:36:12.989088","MEAN_MOTION":14.56219068,"ECCENTRICITY":0.0126515,"INCLINATION":88.9888,"RA_OF_ASC_NODE":281.7041,"ARG_OF_PERICENTER":264.5159,"MEAN_ANOMALY":94.161,"EPHEMERIS_TYPE":0,"CLASSIFICATION_TYPE":"U","NORAD_CAT_ID":61492,"ELEMENT_SET_NO":999,"REV_AT_EPOCH":7918,"BSTAR":0.00081847,"MEAN_MOTION_DOT":4.048e-5,"MEAN_MOTION_DDOT":0}]
